NORAD_CAT_ID,OBJECT_NAME,OBJECT_TYPE,EPOCH,MEAN_MOTION,ECCENTRICITY,INCLINATION,RA_OF_ASC_NODE,ARG_OF_PERICENTER,MEAN_ANOMALY,BSTAR,MEAN_MOTION_DOT,MEAN_MOTION_DDOT,TLE_LINE0,TLE_LINE1,TLE_LINE2,SEMIMAJOR_AXIS,PERIOD,APOGEE,PERIGEE,DECAYED
49174.0,STARLINK-3047,PAYLOAD,2023-11-11 06:11:41,15.00580716,0.0003675,69.9986,255.4356,293.2505,66.8268,0.00087405,0.0001098,0.0,0 STARLINK-3047,1 49174U 21082AW  23315.25811959  .00010980  00000-0  87405-3 0  9997,2 49174  69.9986 255.4356 0003675 293.2505  66.8268 15.00580716120429,6943.241,95.963,567.658,562.555,0.0
49174.0,STARLINK-3047,PAYLOAD,2023-11-11 22:11:35,15.00596056,0.0003769,69.9987,253.7498,291.4721,68.6037,0.00079126,9.934e-05,0.0,0 STARLINK-3047,1 49174U 21082AW  23315.92471360  .00009934  00000-0  79126-3 0  9997,2 49174  69.9987 253.7498 0003769 291.4721  68.6037 15.00596056120521,6943.194,95.962,567.676,562.442,0.0
49174.0,STARLINK-3047,PAYLOAD,2023-11-12 12:35:29,15.00611105,0.0003715,69.999,252.2313,293.1749,66.9019,0.00096384,0.0001213,0.0,0 STARLINK-3047,1 49174U 21082AW  23316.52464389  .00012130  00000-0  96384-3 0  9994,2 49174  69.9990 252.2313 0003715 293.1749  66.9019 15.00611105120619,6943.148,95.961,567.592,562.433,0.0
49174.0,STARLINK-3047,PAYLOAD,2023-11-12 22:11:24,15.00618876,0.0003762,69.9989,251.2193,292.6253,67.4509,0.00087927,0.00011058,0.0,0 STARLINK-3047,1 49174U 21082AW  23316.92459393  .00011058  00000-0  87927-3 0  9998,2 49174  69.9989 251.2193 0003762 292.6253  67.4509 15.00618876120676,6943.124,95.96,567.601,562.377,0.0
49174.0,STARLINK-3047,PAYLOAD,2023-11-13 12:35:18,15.00633075,0.0003714,69.999,249.7013,291.823,68.2535,0.00091788,0.00011553,0.0,0 STARLINK-3047,1 49174U 21082AW  23317.52451452  .00011553  00000-0  91788-3 0  9993,2 49174  69.9990 249.7013 0003714 291.8230  68.2535 15.00633075120760,6943.08,95.96,567.524,562.366,0.0
49174.0,STARLINK-3047,PAYLOAD,2023-11-14 02:59:10,15.00647869,0.0003693,69.999,248.1831,291.8047,68.272,0.00093468,0.00011771,0.0,0 STARLINK-3047,1 49174U 21082AW  23318.12442941  .00011771  00000-0  93468-3 0  9992,2 49174  69.9990 248.1831 0003693 291.8047  68.2720 15.00647869120855,6943.034,95.959,567.463,562.335,0.0
49174.0,STARLINK-3047,PAYLOAD,2023-11-14 12:35:05,15.00654505,0.0003658,69.999,247.1708,290.6772,69.3996,0.00078043,9.812e-05,0.0,0 STARLINK-3047,1 49174U 21082AW  23318.52436974  .00009812  00000-0  78043-3 0  9990,2 49174  69.9990 247.1708 0003658 290.6772  69.3996 15.00654505120919,6943.014,95.958,567.419,562.339,0.0
49174.0,STARLINK-3047,PAYLOAD,2023-11-15 02:58:57,15.00659638,0.0003296,69.9996,245.6535,293.5707,66.5107,0.00031015,3.839e-05,0.0,0 STARLINK-3047,1 49174U 21082AW  23319.12427790  .00003839  00000-0  31015-3 0  9994,2 49174  69.9996 245.6535 0003296 293.5707  66.5107 15.00659638121000,6942.998,95.958,567.151,562.575,0.0
49174.0,STARLINK-3047,PAYLOAD,2023-11-15 06:10:55,15.00667184,0.000319,69.9997,245.3163,291.2921,68.7898,0.00056902,7.127e-05,0.0,0 STARLINK-3047,1 49174U 21082AW  23319.25758931  .00007127  00000-0  56902-3 0  9998,2 49174  69.9997 245.3163 0003190 291.2921  68.7898 15.00667184121029,6942.975,95.957,567.055,562.625,0.0
49174.0,STARLINK-3047,PAYLOAD,2023-11-16 02:58:42,15.00693093,0.0003074,70.0005,243.1225,297.1943,62.8903,0.00094416,0.00011905,0.0,0 STARLINK-3047,1 49174U 21082AW  23320.12410661  .00011905  00000-0  94416-3 0  9992,2 49174  70.0005 243.1225 0003074 297.1943  62.8903 15.00693093121151,6942.895,95.956,566.894,562.626,0.0
49174.0,STARLINK-3047,PAYLOAD,2023-11-16 04:34:41,15.00704855,0.0003388,69.9999,242.9534,295.4165,64.6644,0.0013685,0.00017318,0.0,0 STARLINK-3047,1 49174U 21082AW  23320.19075926  .00017318  00000-0  13685-2 0  9992,2 49174  69.9999 242.9534 0003388 295.4165  64.6644 15.00704855121167,6942.859,95.955,567.076,562.371,0.0
49174.0,STARLINK-3047,PAYLOAD,2023-11-17 12:34:18,15.00738647,0.0003457,69.999,239.5808,295.6432,64.4371,0.000661,8.312e-05,0.0,0 STARLINK-3047,1 49174U 21082AW  23321.52382403  .00008312  00000-0  66100-3 0  9996,2 49174  69.9990 239.5808 0003457 295.6432  64.4371 15.00738647121363,6942.754,95.953,567.019,562.219,0.0
49174.0,STARLINK-3047,PAYLOAD,2023-11-18 04:34:06,15.00749558,0.0003422,69.9989,237.8937,296.503,63.5779,0.00077375,9.751e-05,0.0,0 STARLINK-3047,1 49174U 21082AW  23322.19035029  .00009751  00000-0  77375-3 0  9993,2 49174  69.9989 237.8937 0003422 296.5030  63.5779 15.00749558121467,6942.721,95.952,566.961,562.21,0.0
49174.0,STARLINK-3047,PAYLOAD,2023-11-19 02:57:48,15.00763279,0.0003436,69.9987,235.5326,297.7254,62.3558,0.00055662,6.988e-05,0.0,0 STARLINK-3047,1 49174U 21082AW  23323.12347884  .00006988  00000-0  55662-3 0  9996,2 49174  69.9987 235.5326 0003436 297.7254  62.3558 15.00763279121602,6942.678,95.951,566.929,562.158,0.0
49174.0,STARLINK-3047,PAYLOAD,2023-11-19 10:57:42,15.00767638,0.0003537,69.9981,234.688,292.3224,67.7561,0.00056525,7.098e-05,0.0,0 STARLINK-3047,1 49174U 21082AW  23323.45673640  .00007098  00000-0  56525-3 0  9996,2 49174  69.9981 234.6880 0003537 292.3224  67.7561 15.00767638121652,6942.665,95.951,566.986,562.074,0.0
49174.0,STARLINK-3047,PAYLOAD,2023-11-19 22:09:32,15.00774553,0.0003652,69.9983,233.5069,294.9619,65.1161,0.00042537,5.318e-05,0.0,0 STARLINK-3047,1 49174U 21082AW  23323.92329637  .00005318  00000-0  42537-3 0  9993,2 49174  69.9983 233.5069 0003652 294.9619  65.1161 15.00774553121725,6942.644,95.95,567.044,561.973,0.0
49174.0,STARLINK-3047,PAYLOAD,2023-11-20 10:57:21,15.00783385,0.0003654,69.998,232.157,291.8887,68.1885,0.00060389,7.594e-05,0.0,0 STARLINK-3047,1 49174U 21082AW  23324.45650390  .00007594  00000-0  60389-3 0  9998,2 49174  69.9980 232.1570 0003654 291.8887  68.1885 15.00783385121807,6942.616,95.95,567.018,561.945,0.0
49174.0,STARLINK-3047,PAYLOAD,2023-11-20 20:33:13,15.00791056,0.0003639,69.9978,231.1448,290.3012,69.7757,0.00064372,8.103e-05,0.0,0 STARLINK-3047,1 49174U 21082AW  23324.85640750  .00008103  00000-0  64372-3 0  9994,2 49174  69.9978 231.1448 0003639 290.3012  69.7757 15.00791056121869,6942.593,95.949,566.984,561.931,0.0
49174.0,STARLINK-3047,PAYLOAD,2023-11-21 10:57:00,15.00802281,0.0003656,69.998,229.6262,291.1234,68.9535,0.00065554,8.256e-05,0.0,0 STARLINK-3047,1 49174U 21082AW  23325.45626000  .00008256  00000-0  65554-3 0  9995,2 49174  69.9980 229.6262 0003656 291.1234  68.9535 15.00802281121950,6942.558,95.949,566.961,561.885,0.0
49174.0,STARLINK-3047,PAYLOAD,2023-11-21 20:32:52,15.00815301,0.000367,69.9982,228.6137,290.5433,69.5333,0.00090825,0.00011485,0.0,0 STARLINK-3047,1 49174U 21082AW  23325.85615806  .00011485  00000-0  90825-3 0  9998,2 49174  69.9982 228.6137 0003670 290.5433  69.5333 15.00815301122010,6942.518,95.948,566.931,561.835,0.0
49174.0,STARLINK-3047,PAYLOAD,2023-11-22 02:56:46,15.00821498,0.0003625,69.9982,227.9392,289.3931,70.6838,0.0010117,0.00012809,0.0,0 STARLINK-3047,1 49174U 21082AW  23326.12275575  .00012809  00000-0  10117-2 0  9990,2 49174  69.9982 227.9392 0003625 289.3931  70.6838 15.00821498122055,6942.499,95.947,566.88,561.847,0.0
49174.0,STARLINK-3047,PAYLOAD,2023-11-22 18:56:30,15.00845818,0.0003391,69.9987,226.2521,286.5332,73.5456,0.0012983,0.00016483,0.0,0 STARLINK-3047,1 49174U 21082AW  23326.78924190  .00016483  00000-0  12983-2 0  9991,2 49174  69.9987 226.2521 0003391 286.5332  73.5456 15.00845818122151,6942.424,95.946,566.643,561.935,0.0
49174.0,STARLINK-3047,PAYLOAD,2023-11-22 20:32:28,15.00845715,0.0003509,69.9986,226.0833,287.3478,72.7298,0.0012155,0.00015424,0.0,0 STARLINK-3047,1 49174U 21082AW  23326.85589049  .00015424  00000-0  12155-2 0  9994,2 49174  69.9986 226.0833 0003509 287.3478  72.7298 15.00845715122167,6942.424,95.946,566.725,561.853,0.0
49174.0,STARLINK-3047,PAYLOAD,2023-11-23 02:56:22,15.00851567,0.0003397,69.9984,225.4091,291.6115,68.4684,0.00108,0.00013692,0.0,0 STARLINK-3047,1 49174U 21082AW  23327.12248285  .00013692  00000-0  10800-2 0  9999,2 49174  69.9984 225.4091 0003397 291.6115  68.4684 15.00851567122203,6942.406,95.946,566.629,561.913,0.0
49174.0,STARLINK-3047,PAYLOAD,2023-11-23 22:08:02,15.00873568,0.000369,69.9983,223.3839,286.9535,73.122,0.0009436,0.00011955,0.0,0 STARLINK-3047,1 49174U 21082AW  23327.92224927  .00011955  00000-0  94360-3 0  9998,2 49174  69.9983 223.3839 0003690 286.9535  73.1220 15.00873568122325,6942.338,95.944,566.765,561.642,0.0
49174.0,STARLINK-3047,PAYLOAD,2023-11-24 02:55:57,15.00878675,0.0003647,69.9983,222.8775,285.9791,74.0967,0.00091148,0.00011546,0.0,0 STARLINK-3047,1 49174U 21082AW  23328.12218934  .00011546  00000-0  91148-3 0  9999,2 49174  69.9983 222.8775 0003647 285.9791  74.0967 15.00878675122358,6942.322,95.944,566.719,561.656,0.0
49174.0,STARLINK-3047,PAYLOAD,2023-11-24 04:31:55,15.00880921,0.0003653,69.9983,222.7088,286.0189,74.0569,0.00093015,0.00011785,0.0,0 STARLINK-3047,1 49174U 21082AW  23328.18883582  .00011785  00000-0  93015-3 0  9992,2 49174  69.9983 222.7088 0003653 286.0189  74.0569 15.00880921122360,6942.316,95.944,566.717,561.645,0.0
49174.0,STARLINK-3047,PAYLOAD,2023-11-24 22:07:35,15.0089797,0.000368,69.9983,220.8523,285.5331,74.5423,0.00092943,0.00011781,0.0,0 STARLINK-3047,1 49174U 21082AW  23328.92194360  .00011781  00000-0  92943-3 0  9998,2 49174  69.9983 220.8523 0003680 285.5331  74.5423 15.00897970122474,6942.263,95.943,566.683,561.573,0.0
49174.0,STARLINK-3047,PAYLOAD,2023-11-25 02:55:30,15.00904795,0.0003678,69.9983,220.3463,285.2692,74.8062,0.0010063,0.00012768,0.0,0 STARLINK-3047,1 49174U 21082AW  23329.12188016  .00012768  00000-0  10063-2 0  9990,2 49174  69.9983 220.3463 0003678 285.2692  74.8062 15.00904795122506,6942.242,95.942,566.66,561.554,0.0
49174.0,STARLINK-3047,PAYLOAD,2023-11-25 20:31:09,15.00940305,0.0003655,69.9982,218.4906,285.5428,74.5329,0.0019549,0.0002496,0.0,0 STARLINK-3047,1 49174U 21082AW  23329.85497392  .00024960  00000-0  19549-2 0  9995,2 49174  69.9982 218.4906 0003655 285.5428  74.5329 15.00940305122612,6942.132,95.94,566.535,561.46,0.0
